{"type": "FeatureCollection", "name": "jeonju_grid100_priority", "crs": {"type": "name", "properties": {"name": "urn:ogc:def:crs:EPSG::5179"}}, "features": [{"type": "Feature", "properties": {"우선순위": 1, "grid_id": "cell_967500_1761000", "sgis500_code": "다마67b61a", "행정동": "금암2동·인후2동", "선정_이유": "계측 건물 탄소 상위 1위"}, "geometry": {"type": "Polygon", "coordinates": [[[967500, 1761000], [968000, 1761000], [968000, 1761500], [967500, 1761500], [967500, 1761000]]]}}, {"type": "Feature", "properties": {"우선순위": 1, "grid_id": "cell_964500_1757500", "sgis500_code": "다마64b57b", "행정동": "효자5동", "선정_이유": "계측 건물 탄소 상위 2위 / 2018년 이후 준공 단지 2곳 / 건축HUB+K-apt 함께 관측(검증용)"}, "geometry": {"type": "Polygon", "coordinates": [[[964500, 1757500], [965000, 1757500], [965000, 1758000], [964500, 1758000], [964500, 1757500]]]}}, {"type": "Feature", "properties": {"우선순위": 1, "grid_id": "cell_960000_1760000", "sgis500_code": "다마60a60a", "행정동": "혁신동·이서면", "선정_이유": "계측 건물 탄소 상위 3위 / 2018년 이후 준공 단지 1곳"}, "geometry": {"type": "Polygon", "coordinates": [[[960000, 1760000], [960500, 1760000], [960500, 1760500], [960000, 1760500], [960000, 1760000]]]}}, {"type": "Feature", "properties": {"우선순위": 1, "grid_id": "cell_964000_1764000", "sgis500_code": "다마64a64a", "행정동": "송천2동", "선정_이유": "계측 건물 탄소 상위 4위"}, "geometry": {"type": "Polygon", "coordinates": [[[964000, 1764000], [964500, 1764000], [964500, 1764500], [964000, 1764500], [964000, 1764000]]]}}, {"type": "Feature", "properties": {"우선순위": 1, "grid_id": "cell_964000_1757500", "sgis500_code": "다마64a57b", "행정동": "효자5동", "선정_이유": "계측 건물 탄소 상위 5위 / 건축HUB+K-apt 함께 관측(검증용)"}, "geometry": {"type": "Polygon", "coordinates": [[[964000, 1757500], [964500, 1757500], [964500, 1758000], [964000, 1758000], [964000, 1757500]]]}}, {"type": "Feature", "properties": {"우선순위": 1, "grid_id": "cell_965500_1759500", "sgis500_code": "다마65b59b", "행정동": "서신동", "선정_이유": "계측 건물 탄소 상위 6위 / 건축HUB+K-apt 함께 관측(검증용)"}, "geometry": {"type": "Polygon", "coordinates": [[[965500, 1759500], [966000, 1759500], [966000, 1760000], [965500, 1760000], [965500, 1759500]]]}}, {"type": "Feature", "properties": {"우선순위": 1, "grid_id": "cell_965000_1759500", "sgis500_code": "다마65a59b", "행정동": "서신동", "선정_이유": "계측 건물 탄소 상위 7위 / 건축HUB+K-apt 함께 관측(검증용)"}, "geometry": {"type": "Polygon", "coordinates": [[[965000, 1759500], [965500, 1759500], [965500, 1760000], [965000, 1760000], [965000, 1759500]]]}}, {"type": "Feature", "properties": {"우선순위": 1, "grid_id": "cell_964000_1755500", "sgis500_code": "다마64a55b", "행정동": "효자4동", "선정_이유": "계측 건물 탄소 상위 8위 / 2018년 이후 준공 단지 2곳 / 건축HUB+K-apt 함께 관측(검증용)"}, "geometry": {"type": "Polygon", "coordinates": [[[964000, 1755500], [964500, 1755500], [964500, 1756000], [964000, 1756000], [964000, 1755500]]]}}, {"type": "Feature", "properties": {"우선순위": 1, "grid_id": "cell_966000_1760500", "sgis500_code": "다마66a60b", "행정동": "덕진동", "선정_이유": "계측 건물 탄소 상위 9위"}, "geometry": {"type": "Polygon", "coordinates": [[[966000, 1760500], [966500, 1760500], [966500, 1761000], [966000, 1761000], [966000, 1760500]]]}}, {"type": "Feature", "properties": {"우선순위": 1, "grid_id": "cell_969500_1759500", "sgis500_code": "다마69b59b", "행정동": "인후3동·우아2동", "선정_이유": "계측 건물 탄소 상위 10위 / 건축HUB+K-apt 함께 관측(검증용)"}, "geometry": {"type": "Polygon", "coordinates": [[[969500, 1759500], [970000, 1759500], [970000, 1760000], [969500, 1760000], [969500, 1759500]]]}}, {"type": "Feature", "properties": {"우선순위": 1, "grid_id": "cell_966000_1764000", "sgis500_code": "다마66a64a", "행정동": "송천1동·송천2동", "선정_이유": "계측 건물 탄소 상위 11위"}, "geometry": {"type": "Polygon", "coordinates": [[[966000, 1764000], [966500, 1764000], [966500, 1764500], [966000, 1764500], [966000, 1764000]]]}}, {"type": "Feature", "properties": {"우선순위": 1, "grid_id": "cell_967500_1758000", "sgis500_code": "다마67b58a", "행정동": "중앙동", "선정_이유": "계측 건물 탄소 상위 12위"}, "geometry": {"type": "Polygon", "coordinates": [[[967500, 1758000], [968000, 1758000], [968000, 1758500], [967500, 1758500], [967500, 1758000]]]}}, {"type": "Feature", "properties": {"우선순위": 1, "grid_id": "cell_965000_1756500", "sgis500_code": "다마65a56b", "행정동": "효자3동·효자2동", "선정_이유": "계측 건물 탄소 상위 13위 / 건축HUB+K-apt 함께 관측(검증용)"}, "geometry": {"type": "Polygon", "coordinates": [[[965000, 1756500], [965500, 1756500], [965500, 1757000], [965000, 1757000], [965000, 1756500]]]}}, {"type": "Feature", "properties": {"우선순위": 1, "grid_id": "cell_966500_1764500", "sgis500_code": "다마66b64b", "행정동": "송천1동", "선정_이유": "계측 건물 탄소 상위 14위 / 2018년 이후 준공 단지 3곳 / 건축HUB+K-apt 함께 관측(검증용)"}, "geometry": {"type": "Polygon", "coordinates": [[[966500, 1764500], [967000, 1764500], [967000, 1765000], [966500, 1765000], [966500, 1764500]]]}}, {"type": "Feature", "properties": {"우선순위": 1, "grid_id": "cell_966000_1755500", "sgis500_code": "다마66a55b", "행정동": "삼천2동·삼천1동", "선정_이유": "계측 건물 탄소 상위 15위 / 건축HUB+K-apt 함께 관측(검증용)"}, "geometry": {"type": "Polygon", "coordinates": [[[966000, 1755500], [966500, 1755500], [966500, 1756000], [966000, 1756000], [966000, 1755500]]]}}, {"type": "Feature", "properties": {"우선순위": 1, "grid_id": "cell_968000_1758500", "sgis500_code": "다마68a58b", "행정동": "노송동", "선정_이유": "계측 건물 탄소 상위 16위"}, "geometry": {"type": "Polygon", "coordinates": [[[968000, 1758500], [968500, 1758500], [968500, 1759000], [968000, 1759000], [968000, 1758500]]]}}, {"type": "Feature", "properties": {"우선순위": 1, "grid_id": "cell_967000_1759000", "sgis500_code": "다마67a59a", "행정동": "진북동", "선정_이유": "계측 건물 탄소 상위 17위 / 건축HUB+K-apt 함께 관측(검증용)"}, "geometry": {"type": "Polygon", "coordinates": [[[967000, 1759000], [967500, 1759000], [967500, 1759500], [967000, 1759500], [967000, 1759000]]]}}, {"type": "Feature", "properties": {"우선순위": 1, "grid_id": "cell_966500_1763000", "sgis500_code": "다마66b63a", "행정동": "송천1동", "선정_이유": "계측 건물 탄소 상위 18위 / 건축HUB+K-apt 함께 관측(검증용)"}, "geometry": {"type": "Polygon", "coordinates": [[[966500, 1763000], [967000, 1763000], [967000, 1763500], [966500, 1763500], [966500, 1763000]]]}}, {"type": "Feature", "properties": {"우선순위": 1, "grid_id": "cell_961000_1764000", "sgis500_code": "다마61a64a", "행정동": "조촌동", "선정_이유": "계측 건물 탄소 상위 19위 / 2018년 이후 준공 단지 3곳 / 건축HUB+K-apt 함께 관측(검증용)"}, "geometry": {"type": "Polygon", "coordinates": [[[961000, 1764000], [961500, 1764000], [961500, 1764500], [961000, 1764500], [961000, 1764000]]]}}, {"type": "Feature", "properties": {"우선순위": 1, "grid_id": "cell_965000_1758500", "sgis500_code": "다마65a58b", "행정동": "중화산2동·서신동", "선정_이유": "계측 건물 탄소 상위 20위 / 건축HUB+K-apt 함께 관측(검증용)"}, "geometry": {"type": "Polygon", "coordinates": [[[965000, 1758500], [965500, 1758500], [965500, 1759000], [965000, 1759000], [965000, 1758500]]]}}, {"type": "Feature", "properties": {"우선순위": 1, "grid_id": "cell_970000_1759000", "sgis500_code": "다마70a59a", "행정동": "우아2동·인후3동", "선정_이유": "계측 건물 탄소 상위 21위 / 건축HUB+K-apt 함께 관측(검증용)"}, "geometry": {"type": "Polygon", "coordinates": [[[970000, 1759000], [970500, 1759000], [970500, 1759500], [970000, 1759500], [970000, 1759000]]]}}, {"type": "Feature", "properties": {"우선순위": 1, "grid_id": "cell_964500_1755500", "sgis500_code": "다마64b55b", "행정동": "삼천3동·효자4동", "선정_이유": "계측 건물 탄소 상위 22위 / 2018년 이후 준공 단지 1곳 / 건축HUB+K-apt 함께 관측(검증용)"}, "geometry": {"type": "Polygon", "coordinates": [[[964500, 1755500], [965000, 1755500], [965000, 1756000], [964500, 1756000], [964500, 1755500]]]}}, {"type": "Feature", "properties": {"우선순위": 1, "grid_id": "cell_966500_1760000", "sgis500_code": "다마66b60a", "행정동": "금암1동", "선정_이유": "계측 건물 탄소 상위 23위"}, "geometry": {"type": "Polygon", "coordinates": [[[966500, 1760000], [967000, 1760000], [967000, 1760500], [966500, 1760500], [966500, 1760000]]]}}, {"type": "Feature", "properties": {"우선순위": 1, "grid_id": "cell_968500_1762000", "sgis500_code": "다마68b62a", "행정동": "호성동·우아1동", "선정_이유": "기본 대상지(호성동·우아1동) 3×3 / 계측 건물 탄소 상위 24위 / 건축HUB+K-apt 함께 관측(검증용)"}, "geometry": {"type": "Polygon", "coordinates": [[[968500, 1762000], [969000, 1762000], [969000, 1762500], [968500, 1762500], [968500, 1762000]]]}}, {"type": "Feature", "properties": {"우선순위": 1, "grid_id": "cell_965000_1763000", "sgis500_code": "다마65a63a", "행정동": "송천2동", "선정_이유": "계측 건물 탄소 상위 25위 / 건축HUB+K-apt 함께 관측(검증용)"}, "geometry": {"type": "Polygon", "coordinates": [[[965000, 1763000], [965500, 1763000], [965500, 1763500], [965000, 1763500], [965000, 1763000]]]}}, {"type": "Feature", "properties": {"우선순위": 1, "grid_id": "cell_966000_1754000", "sgis500_code": "다마66a54a", "행정동": "평화2동", "선정_이유": "탄소 상위 100 (29위) / 2018년 이후 준공 단지 4곳 / 건축HUB+K-apt 함께 관측(검증용)"}, "geometry": {"type": "Polygon", "coordinates": [[[966000, 1754000], [966500, 1754000], [966500, 1754500], [966000, 1754500], [966000, 1754000]]]}}, {"type": "Feature", "properties": {"우선순위": 1, "grid_id": "cell_967000_1758500", "sgis500_code": "다마67a58b", "행정동": "중앙동·진북동", "선정_이유": "탄소 상위 100 (34위) / 2018년 이후 준공 단지 1곳 / 건축HUB+K-apt 함께 관측(검증용)"}, "geometry": {"type": "Polygon", "coordinates": [[[967000, 1758500], [967500, 1758500], [967500, 1759000], [967000, 1759000], [967000, 1758500]]]}}, {"type": "Feature", "properties": {"우선순위": 1, "grid_id": "cell_966500_1764000", "sgis500_code": "다마66b64a", "행정동": "송천1동", "선정_이유": "탄소 상위 100 (39위) / 2018년 이후 준공 단지 4곳 / 건축HUB+K-apt 함께 관측(검증용)"}, "geometry": {"type": "Polygon", "coordinates": [[[966500, 1764000], [967000, 1764000], [967000, 1764500], [966500, 1764500], [966500, 1764000]]]}}, {"type": "Feature", "properties": {"우선순위": 1, "grid_id": "cell_961500_1760500", "sgis500_code": "다마61b60b", "행정동": "혁신동", "선정_이유": "탄소 상위 100 (41위) / 2018년 이후 준공 단지 2곳 / 건축HUB+K-apt 함께 관측(검증용)"}, "geometry": {"type": "Polygon", "coordinates": [[[961500, 1760500], [962000, 1760500], [962000, 1761000], [961500, 1761000], [961500, 1760500]]]}}, {"type": "Feature", "properties": {"우선순위": 1, "grid_id": "cell_968000_1762500", "sgis500_code": "다마68a62b", "행정동": "호성동", "선정_이유": "기본 대상지(호성동·우아1동) 3×3 / 탄소 상위 100 (44위) / 건축HUB+K-apt 함께 관측(검증용)"}, "geometry": {"type": "Polygon", "coordinates": [[[968000, 1762500], [968500, 1762500], [968500, 1763000], [968000, 1763000], [968000, 1762500]]]}}, {"type": "Feature", "properties": {"우선순위": 1, "grid_id": "cell_965500_1763000", "sgis500_code": "다마65b63a", "행정동": "송천2동·송천1동", "선정_이유": "탄소 상위 100 (46위) / 2018년 이후 준공 단지 1곳 / 건축HUB+K-apt 함께 관측(검증용)"}, "geometry": {"type": "Polygon", "coordinates": [[[965500, 1763000], [966000, 1763000], [966000, 1763500], [965500, 1763500], [965500, 1763000]]]}}, {"type": "Feature", "properties": {"우선순위": 1, "grid_id": "cell_967500_1758500", "sgis500_code": "다마67b58b", "행정동": "중앙동·노송동", "선정_이유": "탄소 상위 100 (47위) / 2018년 이후 준공 단지 1곳"}, "geometry": {"type": "Polygon", "coordinates": [[[967500, 1758500], [968000, 1758500], [968000, 1759000], [967500, 1759000], [967500, 1758500]]]}}, {"type": "Feature", "properties": {"우선순위": 1, "grid_id": "cell_967000_1764000", "sgis500_code": "다마67a64a", "행정동": "송천1동", "선정_이유": "탄소 상위 100 (53위) / 2018년 이후 준공 단지 3곳 / 건축HUB+K-apt 함께 관측(검증용)"}, "geometry": {"type": "Polygon", "coordinates": [[[967000, 1764000], [967500, 1764000], [967500, 1764500], [967000, 1764500], [967000, 1764000]]]}}, {"type": "Feature", "properties": {"우선순위": 1, "grid_id": "cell_964000_1756000", "sgis500_code": "다마64a56a", "행정동": "효자4동", "선정_이유": "탄소 상위 100 (59위) / 2018년 이후 준공 단지 1곳 / 건축HUB+K-apt 함께 관측(검증용)"}, "geometry": {"type": "Polygon", "coordinates": [[[964000, 1756000], [964500, 1756000], [964500, 1756500], [964000, 1756500], [964000, 1756000]]]}}, {"type": "Feature", "properties": {"우선순위": 1, "grid_id": "cell_961500_1760000", "sgis500_code": "다마61b60a", "행정동": "혁신동", "선정_이유": "탄소 상위 100 (62위) / 2018년 이후 준공 단지 3곳 / 건축HUB+K-apt 함께 관측(검증용)"}, "geometry": {"type": "Polygon", "coordinates": [[[961500, 1760000], [962000, 1760000], [962000, 1760500], [961500, 1760500], [961500, 1760000]]]}}, {"type": "Feature", "properties": {"우선순위": 1, "grid_id": "cell_966000_1759000", "sgis500_code": "다마66a59a", "행정동": "서신동·진북동", "선정_이유": "탄소 상위 100 (63위) / 2018년 이후 준공 단지 1곳 / 건축HUB+K-apt 함께 관측(검증용)"}, "geometry": {"type": "Polygon", "coordinates": [[[966000, 1759000], [966500, 1759000], [966500, 1759500], [966000, 1759500], [966000, 1759000]]]}}, {"type": "Feature", "properties": {"우선순위": 1, "grid_id": "cell_961500_1761000", "sgis500_code": "다마61b61a", "행정동": "혁신동", "선정_이유": "탄소 상위 100 (64위) / 2018년 이후 준공 단지 1곳 / 건축HUB+K-apt 함께 관측(검증용)"}, "geometry": {"type": "Polygon", "coordinates": [[[961500, 1761000], [962000, 1761000], [962000, 1761500], [961500, 1761500], [961500, 1761000]]]}}, {"type": "Feature", "properties": {"우선순위": 1, "grid_id": "cell_969500_1760000", "sgis500_code": "다마69b60a", "행정동": "우아2동·인후1동·인후3동", "선정_이유": "탄소 상위 100 (66위) / 2018년 이후 준공 단지 1곳 / 건축HUB+K-apt 함께 관측(검증용)"}, "geometry": {"type": "Polygon", "coordinates": [[[969500, 1760000], [970000, 1760000], [970000, 1760500], [969500, 1760500], [969500, 1760000]]]}}, {"type": "Feature", "properties": {"우선순위": 1, "grid_id": "cell_966000_1756500", "sgis500_code": "다마66a56b", "행정동": "효자1동", "선정_이유": "탄소 상위 100 (67위) / 2018년 이후 준공 단지 1곳 / 건축HUB+K-apt 함께 관측(검증용)"}, "geometry": {"type": "Polygon", "coordinates": [[[966000, 1756500], [966500, 1756500], [966500, 1757000], [966000, 1757000], [966000, 1756500]]]}}, {"type": "Feature", "properties": {"우선순위": 1, "grid_id": "cell_966000_1756000", "sgis500_code": "다마66a56a", "행정동": "삼천1동·효자1동", "선정_이유": "탄소 상위 100 (75위) / 2018년 이후 준공 단지 1곳 / 건축HUB+K-apt 함께 관측(검증용)"}, "geometry": {"type": "Polygon", "coordinates": [[[966000, 1756000], [966500, 1756000], [966500, 1756500], [966000, 1756500], [966000, 1756000]]]}}, {"type": "Feature", "properties": {"우선순위": 1, "grid_id": "cell_967000_1764500", "sgis500_code": "다마67a64b", "행정동": "송천1동·호성동", "선정_이유": "탄소 상위 100 (79위) / 2018년 이후 준공 단지 2곳 / 건축HUB+K-apt 함께 관측(검증용)"}, "geometry": {"type": "Polygon", "coordinates": [[[967000, 1764500], [967500, 1764500], [967500, 1765000], [967000, 1765000], [967000, 1764500]]]}}, {"type": "Feature", "properties": {"우선순위": 1, "grid_id": "cell_967000_1759500", "sgis500_code": "다마67a59b", "행정동": "금암2동·금암1동·진북동", "선정_이유": "탄소 상위 100 (95위) / 2018년 이후 준공 단지 1곳 / 건축HUB+K-apt 함께 관측(검증용)"}, "geometry": {"type": "Polygon", "coordinates": [[[967000, 1759500], [967500, 1759500], [967500, 1760000], [967000, 1760000], [967000, 1759500]]]}}, {"type": "Feature", "properties": {"우선순위": 1, "grid_id": "cell_967000_1763500", "sgis500_code": "다마67a63b", "행정동": "송천1동", "선정_이유": "탄소 상위 200 (106위) / 2018년 이후 준공 단지 1곳 / 건축HUB+K-apt 함께 관측(검증용)"}, "geometry": {"type": "Polygon", "coordinates": [[[967000, 1763500], [967500, 1763500], [967500, 1764000], [967000, 1764000], [967000, 1763500]]]}}, {"type": "Feature", "properties": {"우선순위": 1, "grid_id": "cell_967500_1755000", "sgis500_code": "다마67b55a", "행정동": "평화1동", "선정_이유": "탄소 상위 200 (115위) / 2018년 이후 준공 단지 1곳 / 건축HUB+K-apt 함께 관측(검증용)"}, "geometry": {"type": "Polygon", "coordinates": [[[967500, 1755000], [968000, 1755000], [968000, 1755500], [967500, 1755500], [967500, 1755000]]]}}, {"type": "Feature", "properties": {"우선순위": 1, "grid_id": "cell_962000_1761000", "sgis500_code": "다마62a61a", "행정동": "혁신동", "선정_이유": "탄소 상위 200 (118위) / 2018년 이후 준공 단지 1곳 / 건축HUB+K-apt 함께 관측(검증용)"}, "geometry": {"type": "Polygon", "coordinates": [[[962000, 1761000], [962500, 1761000], [962500, 1761500], [962000, 1761500], [962000, 1761000]]]}}, {"type": "Feature", "properties": {"우선순위": 1, "grid_id": "cell_969000_1761000", "sgis500_code": "다마69a61a", "행정동": "우아1동", "선정_이유": "탄소 상위 200 (122위) / 2018년 이후 준공 단지 1곳"}, "geometry": {"type": "Polygon", "coordinates": [[[969000, 1761000], [969500, 1761000], [969500, 1761500], [969000, 1761500], [969000, 1761000]]]}}, {"type": "Feature", "properties": {"우선순위": 1, "grid_id": "cell_968500_1761500", "sgis500_code": "다마68b61b", "행정동": "우아1동", "선정_이유": "기본 대상지(호성동·우아1동) 3×3 / 탄소 상위 200 (135위) / 2018년 이후 준공 단지 2곳"}, "geometry": {"type": "Polygon", "coordinates": [[[968500, 1761500], [969000, 1761500], [969000, 1762000], [968500, 1762000], [968500, 1761500]]]}}, {"type": "Feature", "properties": {"우선순위": 1, "grid_id": "cell_961000_1763500", "sgis500_code": "다마61a63b", "행정동": "여의동", "선정_이유": "탄소 상위 200 (136위) / 2018년 이후 준공 단지 1곳 / 건축HUB+K-apt 함께 관측(검증용)"}, "geometry": {"type": "Polygon", "coordinates": [[[961000, 1763500], [961500, 1763500], [961500, 1764000], [961000, 1764000], [961000, 1763500]]]}}, {"type": "Feature", "properties": {"우선순위": 1, "grid_id": "cell_961500_1764500", "sgis500_code": "다마61b64b", "행정동": "조촌동·여의동", "선정_이유": "탄소 상위 200 (144위) / 2018년 이후 준공 단지 1곳 / 건축HUB+K-apt 함께 관측(검증용)"}, "geometry": {"type": "Polygon", "coordinates": [[[961500, 1764500], [962000, 1764500], [962000, 1765000], [961500, 1765000], [961500, 1764500]]]}}, {"type": "Feature", "properties": {"우선순위": 1, "grid_id": "cell_961500_1764000", "sgis500_code": "다마61b64a", "행정동": "조촌동·여의동", "선정_이유": "탄소 상위 200 (145위) / 2018년 이후 준공 단지 1곳 / 건축HUB+K-apt 함께 관측(검증용)"}, "geometry": {"type": "Polygon", "coordinates": [[[961500, 1764000], [962000, 1764000], [962000, 1764500], [961500, 1764500], [961500, 1764000]]]}}, {"type": "Feature", "properties": {"우선순위": 1, "grid_id": "cell_964500_1756000", "sgis500_code": "다마64b56a", "행정동": "효자4동·효자3동", "선정_이유": "탄소 상위 200 (147위) / 2018년 이후 준공 단지 1곳 / 건축HUB+K-apt 함께 관측(검증용)"}, "geometry": {"type": "Polygon", "coordinates": [[[964500, 1756000], [965000, 1756000], [965000, 1756500], [964500, 1756500], [964500, 1756000]]]}}, {"type": "Feature", "properties": {"우선순위": 1, "grid_id": "cell_968500_1762500", "sgis500_code": "다마68b62b", "행정동": "호성동", "선정_이유": "기본 대상지(호성동·우아1동) 3×3 / 탄소 상위 200 (149위) / 건축HUB+K-apt 함께 관측(검증용)"}, "geometry": {"type": "Polygon", "coordinates": [[[968500, 1762500], [969000, 1762500], [969000, 1763000], [968500, 1763000], [968500, 1762500]]]}}, {"type": "Feature", "properties": {"우선순위": 1, "grid_id": "cell_969000_1761500", "sgis500_code": "다마69a61b", "행정동": "우아1동", "선정_이유": "기본 대상지(호성동·우아1동) 3×3 / 탄소 상위 200 (158위)"}, "geometry": {"type": "Polygon", "coordinates": [[[969000, 1761500], [969500, 1761500], [969500, 1762000], [969000, 1762000], [969000, 1761500]]]}}, {"type": "Feature", "properties": {"우선순위": 1, "grid_id": "cell_963500_1759000", "sgis500_code": "다마63b59a", "행정동": "효자5동", "선정_이유": "탄소 상위 200 (168위) / 단독주택 밀집(건축HUB 미포함) / 건축HUB+K-apt 함께 관측(검증용)"}, "geometry": {"type": "Polygon", "coordinates": [[[963500, 1759000], [964000, 1759000], [964000, 1759500], [963500, 1759500], [963500, 1759000]]]}}, {"type": "Feature", "properties": {"우선순위": 1, "grid_id": "cell_966500_1763500", "sgis500_code": "다마66b63b", "행정동": "송천1동", "선정_이유": "탄소 상위 200 (173위) / 2018년 이후 준공 단지 1곳 / 건축HUB+K-apt 함께 관측(검증용)"}, "geometry": {"type": "Polygon", "coordinates": [[[966500, 1763500], [967000, 1763500], [967000, 1764000], [966500, 1764000], [966500, 1763500]]]}}, {"type": "Feature", "properties": {"우선순위": 1, "grid_id": "cell_963500_1762500", "sgis500_code": "다마63b62b", "행정동": "팔복동", "선정_이유": "탄소 상위 200 (186위) / 2018년 이후 준공 단지 1곳 / 건축HUB+K-apt 함께 관측(검증용)"}, "geometry": {"type": "Polygon", "coordinates": [[[963500, 1762500], [964000, 1762500], [964000, 1763000], [963500, 1763000], [963500, 1762500]]]}}, {"type": "Feature", "properties": {"우선순위": 1, "grid_id": "cell_966000_1759500", "sgis500_code": "다마66a59b", "행정동": "진북동·서신동·덕진동", "선정_이유": "탄소 상위 200 (189위) / 2018년 이후 준공 단지 1곳 / 건축HUB+K-apt 함께 관측(검증용)"}, "geometry": {"type": "Polygon", "coordinates": [[[966000, 1759500], [966500, 1759500], [966500, 1760000], [966000, 1760000], [966000, 1759500]]]}}, {"type": "Feature", "properties": {"우선순위": 1, "grid_id": "cell_965500_1755500", "sgis500_code": "다마65b55b", "행정동": "삼천2동·삼천1동", "선정_이유": "탄소 상위 200 (190위) / 단독주택 밀집(건축HUB 미포함) / 건축HUB+K-apt 함께 관측(검증용)"}, "geometry": {"type": "Polygon", "coordinates": [[[965500, 1755500], [966000, 1755500], [966000, 1756000], [965500, 1756000], [965500, 1755500]]]}}, {"type": "Feature", "properties": {"우선순위": 1, "grid_id": "cell_968500_1759000", "sgis500_code": "다마68b59a", "행정동": "노송동·인후3동·인후1동", "선정_이유": "탄소 상위 200 (191위) / 2018년 이후 준공 단지 1곳"}, "geometry": {"type": "Polygon", "coordinates": [[[968500, 1759000], [969000, 1759000], [969000, 1759500], [968500, 1759500], [968500, 1759000]]]}}, {"type": "Feature", "properties": {"우선순위": 1, "grid_id": "cell_966500_1756500", "sgis500_code": "다마66b56b", "행정동": "효자1동·완산동", "선정_이유": "탄소 상위 200 (195위) / 2018년 이후 준공 단지 1곳 / 건축HUB+K-apt 함께 관측(검증용)"}, "geometry": {"type": "Polygon", "coordinates": [[[966500, 1756500], [967000, 1756500], [967000, 1757000], [966500, 1757000], [966500, 1756500]]]}}, {"type": "Feature", "properties": {"우선순위": 1, "grid_id": "cell_966000_1764500", "sgis500_code": "다마66a64b", "행정동": "송천2동·송천1동", "선정_이유": "2018년 이후 준공 단지 1곳 / 건축HUB+K-apt 함께 관측(검증용)"}, "geometry": {"type": "Polygon", "coordinates": [[[966000, 1764500], [966500, 1764500], [966500, 1765000], [966000, 1765000], [966000, 1764500]]]}}, {"type": "Feature", "properties": {"우선순위": 1, "grid_id": "cell_963500_1758000", "sgis500_code": "다마63b58a", "행정동": "효자5동", "선정_이유": "단독주택 밀집(건축HUB 미포함)"}, "geometry": {"type": "Polygon", "coordinates": [[[963500, 1758000], [964000, 1758000], [964000, 1758500], [963500, 1758500], [963500, 1758000]]]}}, {"type": "Feature", "properties": {"우선순위": 1, "grid_id": "cell_961000_1761000", "sgis500_code": "다마61a61a", "행정동": "혁신동·여의동", "선정_이유": "2018년 이후 준공 단지 1곳 / 건축HUB+K-apt 함께 관측(검증용)"}, "geometry": {"type": "Polygon", "coordinates": [[[961000, 1761000], [961500, 1761000], [961500, 1761500], [961000, 1761500], [961000, 1761000]]]}}, {"type": "Feature", "properties": {"우선순위": 1, "grid_id": "cell_969000_1762500", "sgis500_code": "다마69a62b", "행정동": "호성동", "선정_이유": "기본 대상지(호성동·우아1동) 3×3"}, "geometry": {"type": "Polygon", "coordinates": [[[969000, 1762500], [969500, 1762500], [969500, 1763000], [969000, 1763000], [969000, 1762500]]]}}, {"type": "Feature", "properties": {"우선순위": 1, "grid_id": "cell_969000_1762000", "sgis500_code": "다마69a62a", "행정동": "우아1동·호성동", "선정_이유": "기본 대상지(호성동·우아1동) 3×3"}, "geometry": {"type": "Polygon", "coordinates": [[[969000, 1762000], [969500, 1762000], [969500, 1762500], [969000, 1762500], [969000, 1762000]]]}}, {"type": "Feature", "properties": {"우선순위": 1, "grid_id": "cell_964000_1759000", "sgis500_code": "다마64a59a", "행정동": "효자5동", "선정_이유": "단독주택 밀집(건축HUB 미포함)"}, "geometry": {"type": "Polygon", "coordinates": [[[964000, 1759000], [964500, 1759000], [964500, 1759500], [964000, 1759500], [964000, 1759000]]]}}, {"type": "Feature", "properties": {"우선순위": 1, "grid_id": "cell_969000_1758000", "sgis500_code": "다마69a58a", "행정동": "노송동", "선정_이유": "단독주택 밀집(건축HUB 미포함)"}, "geometry": {"type": "Polygon", "coordinates": [[[969000, 1758000], [969500, 1758000], [969500, 1758500], [969000, 1758500], [969000, 1758000]]]}}, {"type": "Feature", "properties": {"우선순위": 1, "grid_id": "cell_969000_1757500", "sgis500_code": "다마69a57b", "행정동": "풍남동·노송동", "선정_이유": "단독주택 밀집(건축HUB 미포함)"}, "geometry": {"type": "Polygon", "coordinates": [[[969000, 1757500], [969500, 1757500], [969500, 1758000], [969000, 1758000], [969000, 1757500]]]}}, {"type": "Feature", "properties": {"우선순위": 1, "grid_id": "cell_969000_1756500", "sgis500_code": "다마69a56b", "행정동": "동서학동", "선정_이유": "단독주택 밀집(건축HUB 미포함)"}, "geometry": {"type": "Polygon", "coordinates": [[[969000, 1756500], [969500, 1756500], [969500, 1757000], [969000, 1757000], [969000, 1756500]]]}}, {"type": "Feature", "properties": {"우선순위": 1, "grid_id": "cell_963500_1758500", "sgis500_code": "다마63b58b", "행정동": "효자5동", "선정_이유": "단독주택 밀집(건축HUB 미포함)"}, "geometry": {"type": "Polygon", "coordinates": [[[963500, 1758500], [964000, 1758500], [964000, 1759000], [963500, 1759000], [963500, 1758500]]]}}, {"type": "Feature", "properties": {"우선순위": 1, "grid_id": "cell_967500_1756500", "sgis500_code": "다마67b56b", "행정동": "완산동", "선정_이유": "단독주택 밀집(건축HUB 미포함)"}, "geometry": {"type": "Polygon", "coordinates": [[[967500, 1756500], [968000, 1756500], [968000, 1757000], [967500, 1757000], [967500, 1756500]]]}}, {"type": "Feature", "properties": {"우선순위": 1, "grid_id": "cell_966500_1758000", "sgis500_code": "다마66b58a", "행정동": "진북동·중화산1동", "선정_이유": "단독주택 밀집(건축HUB 미포함)"}, "geometry": {"type": "Polygon", "coordinates": [[[966500, 1758000], [967000, 1758000], [967000, 1758500], [966500, 1758500], [966500, 1758000]]]}}, {"type": "Feature", "properties": {"우선순위": 1, "grid_id": "cell_968000_1761500", "sgis500_code": "다마68a61b", "행정동": "덕진동·호성동", "선정_이유": "기본 대상지(호성동·우아1동) 3×3"}, "geometry": {"type": "Polygon", "coordinates": [[[968000, 1761500], [968500, 1761500], [968500, 1762000], [968000, 1762000], [968000, 1761500]]]}}, {"type": "Feature", "properties": {"우선순위": 1, "grid_id": "cell_968000_1762000", "sgis500_code": "다마68a62a", "행정동": "호성동·덕진동", "선정_이유": "기본 대상지(호성동·우아1동) 3×3"}, "geometry": {"type": "Polygon", "coordinates": [[[968000, 1762000], [968500, 1762000], [968500, 1762500], [968000, 1762500], [968000, 1762000]]]}}, {"type": "Feature", "properties": {"우선순위": 2, "grid_id": "cell_968500_1761000", "sgis500_code": "다마68b61a", "행정동": "우아1동·인후2동", "선정_이유": "탄소 상위 100 (26위)"}, "geometry": {"type": "Polygon", "coordinates": [[[968500, 1761000], [969000, 1761000], [969000, 1761500], [968500, 1761500], [968500, 1761000]]]}}, {"type": "Feature", "properties": {"우선순위": 2, "grid_id": "cell_966000_1763000", "sgis500_code": "다마66a63a", "행정동": "송천1동", "선정_이유": "탄소 상위 100 (27위) / 건축HUB+K-apt 함께 관측(검증용)"}, "geometry": {"type": "Polygon", "coordinates": [[[966000, 1763000], [966500, 1763000], [966500, 1763500], [966000, 1763500], [966000, 1763000]]]}}, {"type": "Feature", "properties": {"우선순위": 2, "grid_id": "cell_960500_1759500", "sgis500_code": "다마60b59b", "행정동": "혁신동", "선정_이유": "탄소 상위 100 (28위) / 건축HUB+K-apt 함께 관측(검증용)"}, "geometry": {"type": "Polygon", "coordinates": [[[960500, 1759500], [961000, 1759500], [961000, 1760000], [960500, 1760000], [960500, 1759500]]]}}, {"type": "Feature", "properties": {"우선순위": 2, "grid_id": "cell_965000_1756000", "sgis500_code": "다마65a56a", "행정동": "효자3동", "선정_이유": "탄소 상위 100 (30위) / 건축HUB+K-apt 함께 관측(검증용)"}, "geometry": {"type": "Polygon", "coordinates": [[[965000, 1756000], [965500, 1756000], [965500, 1756500], [965000, 1756500], [965000, 1756000]]]}}, {"type": "Feature", "properties": {"우선순위": 2, "grid_id": "cell_966500_1754500", "sgis500_code": "다마66b54b", "행정동": "평화2동", "선정_이유": "탄소 상위 100 (31위) / 건축HUB+K-apt 함께 관측(검증용)"}, "geometry": {"type": "Polygon", "coordinates": [[[966500, 1754500], [967000, 1754500], [967000, 1755000], [966500, 1755000], [966500, 1754500]]]}}, {"type": "Feature", "properties": {"우선순위": 2, "grid_id": "cell_965000_1762500", "sgis500_code": "다마65a62b", "행정동": "송천2동", "선정_이유": "탄소 상위 100 (32위) / 건축HUB+K-apt 함께 관측(검증용)"}, "geometry": {"type": "Polygon", "coordinates": [[[965000, 1762500], [965500, 1762500], [965500, 1763000], [965000, 1763000], [965000, 1762500]]]}}, {"type": "Feature", "properties": {"우선순위": 2, "grid_id": "cell_965000_1755000", "sgis500_code": "다마65a55a", "행정동": "삼천3동·삼천2동", "선정_이유": "탄소 상위 100 (33위) / 건축HUB+K-apt 함께 관측(검증용)"}, "geometry": {"type": "Polygon", "coordinates": [[[965000, 1755000], [965500, 1755000], [965500, 1755500], [965000, 1755500], [965000, 1755000]]]}}, {"type": "Feature", "properties": {"우선순위": 2, "grid_id": "cell_966500_1755000", "sgis500_code": "다마66b55a", "행정동": "평화2동", "선정_이유": "탄소 상위 100 (35위) / 건축HUB+K-apt 함께 관측(검증용)"}, "geometry": {"type": "Polygon", "coordinates": [[[966500, 1755000], [967000, 1755000], [967000, 1755500], [966500, 1755500], [966500, 1755000]]]}}, {"type": "Feature", "properties": {"우선순위": 2, "grid_id": "cell_966000_1763500", "sgis500_code": "다마66a63b", "행정동": "송천1동", "선정_이유": "탄소 상위 100 (36위) / 건축HUB+K-apt 함께 관측(검증용)"}, "geometry": {"type": "Polygon", "coordinates": [[[966000, 1763500], [966500, 1763500], [966500, 1764000], [966000, 1764000], [966000, 1763500]]]}}, {"type": "Feature", "properties": {"우선순위": 2, "grid_id": "cell_968500_1760000", "sgis500_code": "다마68b60a", "행정동": "인후1동", "선정_이유": "탄소 상위 100 (37위) / 건축HUB+K-apt 함께 관측(검증용)"}, "geometry": {"type": "Polygon", "coordinates": [[[968500, 1760000], [969000, 1760000], [969000, 1760500], [968500, 1760500], [968500, 1760000]]]}}, {"type": "Feature", "properties": {"우선순위": 2, "grid_id": "cell_965000_1760000", "sgis500_code": "다마65a60a", "행정동": "서신동·덕진동", "선정_이유": "탄소 상위 100 (38위) / 건축HUB+K-apt 함께 관측(검증용)"}, "geometry": {"type": "Polygon", "coordinates": [[[965000, 1760000], [965500, 1760000], [965500, 1760500], [965000, 1760500], [965000, 1760000]]]}}, {"type": "Feature", "properties": {"우선순위": 2, "grid_id": "cell_963500_1759500", "sgis500_code": "다마63b59b", "행정동": "효자5동", "선정_이유": "탄소 상위 100 (40위) / 건축HUB+K-apt 함께 관측(검증용)"}, "geometry": {"type": "Polygon", "coordinates": [[[963500, 1759500], [964000, 1759500], [964000, 1760000], [963500, 1760000], [963500, 1759500]]]}}, {"type": "Feature", "properties": {"우선순위": 2, "grid_id": "cell_964500_1759500", "sgis500_code": "다마64b59b", "행정동": "서신동", "선정_이유": "탄소 상위 100 (42위) / 건축HUB+K-apt 함께 관측(검증용)"}, "geometry": {"type": "Polygon", "coordinates": [[[964500, 1759500], [965000, 1759500], [965000, 1760000], [964500, 1760000], [964500, 1759500]]]}}, {"type": "Feature", "properties": {"우선순위": 2, "grid_id": "cell_964500_1758000", "sgis500_code": "다마64b58a", "행정동": "효자5동", "선정_이유": "탄소 상위 100 (43위) / 건축HUB+K-apt 함께 관측(검증용)"}, "geometry": {"type": "Polygon", "coordinates": [[[964500, 1758000], [965000, 1758000], [965000, 1758500], [964500, 1758500], [964500, 1758000]]]}}, {"type": "Feature", "properties": {"우선순위": 2, "grid_id": "cell_966000_1762500", "sgis500_code": "다마66a62b", "행정동": "송천1동", "선정_이유": "탄소 상위 100 (45위) / 건축HUB+K-apt 함께 관측(검증용)"}, "geometry": {"type": "Polygon", "coordinates": [[[966000, 1762500], [966500, 1762500], [966500, 1763000], [966000, 1763000], [966000, 1762500]]]}}, {"type": "Feature", "properties": {"우선순위": 2, "grid_id": "cell_969500_1759000", "sgis500_code": "다마69b59a", "행정동": "인후3동", "선정_이유": "탄소 상위 100 (48위) / 건축HUB+K-apt 함께 관측(검증용)"}, "geometry": {"type": "Polygon", "coordinates": [[[969500, 1759000], [970000, 1759000], [970000, 1759500], [969500, 1759500], [969500, 1759000]]]}}, {"type": "Feature", "properties": {"우선순위": 2, "grid_id": "cell_967500_1755500", "sgis500_code": "다마67b55b", "행정동": "평화1동", "선정_이유": "탄소 상위 100 (49위) / 건축HUB+K-apt 함께 관측(검증용)"}, "geometry": {"type": "Polygon", "coordinates": [[[967500, 1755500], [968000, 1755500], [968000, 1756000], [967500, 1756000], [967500, 1755500]]]}}, {"type": "Feature", "properties": {"우선순위": 2, "grid_id": "cell_966000_1757500", "sgis500_code": "다마66a57b", "행정동": "중화산1동·중화산2동", "선정_이유": "탄소 상위 100 (50위) / 건축HUB+K-apt 함께 관측(검증용)"}, "geometry": {"type": "Polygon", "coordinates": [[[966000, 1757500], [966500, 1757500], [966500, 1758000], [966000, 1758000], [966000, 1757500]]]}}, {"type": "Feature", "properties": {"우선순위": 2, "grid_id": "cell_968500_1760500", "sgis500_code": "다마68b60b", "행정동": "인후1동·우아1동·인후2동", "선정_이유": "탄소 상위 100 (51위) / 건축HUB+K-apt 함께 관측(검증용)"}, "geometry": {"type": "Polygon", "coordinates": [[[968500, 1760500], [969000, 1760500], [969000, 1761000], [968500, 1761000], [968500, 1760500]]]}}, {"type": "Feature", "properties": {"우선순위": 2, "grid_id": "cell_968000_1758000", "sgis500_code": "다마68a58a", "행정동": "풍남동", "선정_이유": "탄소 상위 100 (52위)"}, "geometry": {"type": "Polygon", "coordinates": [[[968000, 1758000], [968500, 1758000], [968500, 1758500], [968000, 1758500], [968000, 1758000]]]}}, {"type": "Feature", "properties": {"우선순위": 2, "grid_id": "cell_964500_1757000", "sgis500_code": "다마64b57a", "행정동": "효자4동·효자3동", "선정_이유": "탄소 상위 100 (54위) / 건축HUB+K-apt 함께 관측(검증용)"}, "geometry": {"type": "Polygon", "coordinates": [[[964500, 1757000], [965000, 1757000], [965000, 1757500], [964500, 1757500], [964500, 1757000]]]}}, {"type": "Feature", "properties": {"우선순위": 2, "grid_id": "cell_966000_1757000", "sgis500_code": "다마66a57a", "행정동": "중화산1동", "선정_이유": "탄소 상위 100 (55위) / 건축HUB+K-apt 함께 관측(검증용)"}, "geometry": {"type": "Polygon", "coordinates": [[[966000, 1757000], [966500, 1757000], [966500, 1757500], [966000, 1757500], [966000, 1757000]]]}}, {"type": "Feature", "properties": {"우선순위": 2, "grid_id": "cell_965000_1755500", "sgis500_code": "다마65a55b", "행정동": "삼천3동·삼천2동", "선정_이유": "탄소 상위 100 (56위) / 건축HUB+K-apt 함께 관측(검증용)"}, "geometry": {"type": "Polygon", "coordinates": [[[965000, 1755500], [965500, 1755500], [965500, 1756000], [965000, 1756000], [965000, 1755500]]]}}, {"type": "Feature", "properties": {"우선순위": 2, "grid_id": "cell_964000_1758000", "sgis500_code": "다마64a58a", "행정동": "효자5동", "선정_이유": "탄소 상위 100 (57위)"}, "geometry": {"type": "Polygon", "coordinates": [[[964000, 1758000], [964500, 1758000], [964500, 1758500], [964000, 1758500], [964000, 1758000]]]}}, {"type": "Feature", "properties": {"우선순위": 2, "grid_id": "cell_963500_1756500", "sgis500_code": "다마63b56b", "행정동": "효자4동", "선정_이유": "탄소 상위 100 (58위) / 건축HUB+K-apt 함께 관측(검증용)"}, "geometry": {"type": "Polygon", "coordinates": [[[963500, 1756500], [964000, 1756500], [964000, 1757000], [963500, 1757000], [963500, 1756500]]]}}, {"type": "Feature", "properties": {"우선순위": 2, "grid_id": "cell_961000_1760000", "sgis500_code": "다마61a60a", "행정동": "혁신동", "선정_이유": "탄소 상위 100 (60위)"}, "geometry": {"type": "Polygon", "coordinates": [[[961000, 1760000], [961500, 1760000], [961500, 1760500], [961000, 1760500], [961000, 1760000]]]}}, {"type": "Feature", "properties": {"우선순위": 2, "grid_id": "cell_965000_1757500", "sgis500_code": "다마65a57b", "행정동": "중화산2동·효자2동", "선정_이유": "탄소 상위 100 (61위) / 건축HUB+K-apt 함께 관측(검증용)"}, "geometry": {"type": "Polygon", "coordinates": [[[965000, 1757500], [965500, 1757500], [965500, 1758000], [965000, 1758000], [965000, 1757500]]]}}, {"type": "Feature", "properties": {"우선순위": 2, "grid_id": "cell_967000_1754000", "sgis500_code": "다마67a54a", "행정동": "평화2동", "선정_이유": "탄소 상위 100 (65위) / 건축HUB+K-apt 함께 관측(검증용)"}, "geometry": {"type": "Polygon", "coordinates": [[[967000, 1754000], [967500, 1754000], [967500, 1754500], [967000, 1754500], [967000, 1754000]]]}}, {"type": "Feature", "properties": {"우선순위": 2, "grid_id": "cell_964500_1760500", "sgis500_code": "다마64b60b", "행정동": "덕진동", "선정_이유": "탄소 상위 100 (68위) / 건축HUB+K-apt 함께 관측(검증용)"}, "geometry": {"type": "Polygon", "coordinates": [[[964500, 1760500], [965000, 1760500], [965000, 1761000], [964500, 1761000], [964500, 1760500]]]}}, {"type": "Feature", "properties": {"우선순위": 2, "grid_id": "cell_961500_1763500", "sgis500_code": "다마61b63b", "행정동": "여의동", "선정_이유": "탄소 상위 100 (69위) / 건축HUB+K-apt 함께 관측(검증용)"}, "geometry": {"type": "Polygon", "coordinates": [[[961500, 1763500], [962000, 1763500], [962000, 1764000], [961500, 1764000], [961500, 1763500]]]}}, {"type": "Feature", "properties": {"우선순위": 2, "grid_id": "cell_959500_1760500", "sgis500_code": "다마59b60b", "행정동": "이서면·혁신동", "선정_이유": "탄소 상위 100 (70위) / 건축HUB+K-apt 함께 관측(검증용)"}, "geometry": {"type": "Polygon", "coordinates": [[[959500, 1760500], [960000, 1760500], [960000, 1761000], [959500, 1761000], [959500, 1760500]]]}}, {"type": "Feature", "properties": {"우선순위": 2, "grid_id": "cell_970000_1758500", "sgis500_code": "다마70a58b", "행정동": "우아2동·인후3동", "선정_이유": "탄소 상위 100 (71위) / 건축HUB+K-apt 함께 관측(검증용)"}, "geometry": {"type": "Polygon", "coordinates": [[[970000, 1758500], [970500, 1758500], [970500, 1759000], [970000, 1759000], [970000, 1758500]]]}}, {"type": "Feature", "properties": {"우선순위": 2, "grid_id": "cell_965000_1758000", "sgis500_code": "다마65a58a", "행정동": "중화산2동·효자5동", "선정_이유": "탄소 상위 100 (72위)"}, "geometry": {"type": "Polygon", "coordinates": [[[965000, 1758000], [965500, 1758000], [965500, 1758500], [965000, 1758500], [965000, 1758000]]]}}, {"type": "Feature", "properties": {"우선순위": 2, "grid_id": "cell_966500_1756000", "sgis500_code": "다마66b56a", "행정동": "효자1동·삼천1동", "선정_이유": "탄소 상위 100 (73위) / 건축HUB+K-apt 함께 관측(검증용)"}, "geometry": {"type": "Polygon", "coordinates": [[[966500, 1756000], [967000, 1756000], [967000, 1756500], [966500, 1756500], [966500, 1756000]]]}}, {"type": "Feature", "properties": {"우선순위": 2, "grid_id": "cell_959500_1760000", "sgis500_code": "다마59b60a", "행정동": "이서면", "선정_이유": "탄소 상위 100 (74위)"}, "geometry": {"type": "Polygon", "coordinates": [[[959500, 1760000], [960000, 1760000], [960000, 1760500], [959500, 1760500], [959500, 1760000]]]}}, {"type": "Feature", "properties": {"우선순위": 2, "grid_id": "cell_967500_1757500", "sgis500_code": "다마67b57b", "행정동": "중앙동", "선정_이유": "탄소 상위 100 (76위)"}, "geometry": {"type": "Polygon", "coordinates": [[[967500, 1757500], [968000, 1757500], [968000, 1758000], [967500, 1758000], [967500, 1757500]]]}}, {"type": "Feature", "properties": {"우선순위": 2, "grid_id": "cell_968000_1757500", "sgis500_code": "다마68a57b", "행정동": "풍남동", "선정_이유": "탄소 상위 100 (77위)"}, "geometry": {"type": "Polygon", "coordinates": [[[968000, 1757500], [968500, 1757500], [968500, 1758000], [968000, 1758000], [968000, 1757500]]]}}, {"type": "Feature", "properties": {"우선순위": 2, "grid_id": "cell_965500_1757500", "sgis500_code": "다마65b57b", "행정동": "중화산2동", "선정_이유": "탄소 상위 100 (78위)"}, "geometry": {"type": "Polygon", "coordinates": [[[965500, 1757500], [966000, 1757500], [966000, 1758000], [965500, 1758000], [965500, 1757500]]]}}, {"type": "Feature", "properties": {"우선순위": 2, "grid_id": "cell_964000_1757000", "sgis500_code": "다마64a57a", "행정동": "효자4동", "선정_이유": "탄소 상위 100 (80위) / 건축HUB+K-apt 함께 관측(검증용)"}, "geometry": {"type": "Polygon", "coordinates": [[[964000, 1757000], [964500, 1757000], [964500, 1757500], [964000, 1757500], [964000, 1757000]]]}}, {"type": "Feature", "properties": {"우선순위": 2, "grid_id": "cell_966500_1759500", "sgis500_code": "다마66b59b", "행정동": "금암1동·진북동", "선정_이유": "탄소 상위 100 (81위) / 건축HUB+K-apt 함께 관측(검증용)"}, "geometry": {"type": "Polygon", "coordinates": [[[966500, 1759500], [967000, 1759500], [967000, 1760000], [966500, 1760000], [966500, 1759500]]]}}, {"type": "Feature", "properties": {"우선순위": 2, "grid_id": "cell_966500_1757000", "sgis500_code": "다마66b57a", "행정동": "중화산1동·완산동", "선정_이유": "탄소 상위 100 (82위) / 건축HUB+K-apt 함께 관측(검증용)"}, "geometry": {"type": "Polygon", "coordinates": [[[966500, 1757000], [967000, 1757000], [967000, 1757500], [966500, 1757500], [966500, 1757000]]]}}, {"type": "Feature", "properties": {"우선순위": 2, "grid_id": "cell_965500_1762000", "sgis500_code": "다마65b62a", "행정동": "송천1동·송천2동", "선정_이유": "탄소 상위 100 (83위) / 건축HUB+K-apt 함께 관측(검증용)"}, "geometry": {"type": "Polygon", "coordinates": [[[965500, 1762000], [966000, 1762000], [966000, 1762500], [965500, 1762500], [965500, 1762000]]]}}, {"type": "Feature", "properties": {"우선순위": 2, "grid_id": "cell_967000_1754500", "sgis500_code": "다마67a54b", "행정동": "평화2동", "선정_이유": "탄소 상위 100 (84위) / 건축HUB+K-apt 함께 관측(검증용)"}, "geometry": {"type": "Polygon", "coordinates": [[[967000, 1754500], [967500, 1754500], [967500, 1755000], [967000, 1755000], [967000, 1754500]]]}}, {"type": "Feature", "properties": {"우선순위": 2, "grid_id": "cell_964500_1760000", "sgis500_code": "다마64b60a", "행정동": "서신동·덕진동", "선정_이유": "탄소 상위 100 (85위) / 건축HUB+K-apt 함께 관측(검증용)"}, "geometry": {"type": "Polygon", "coordinates": [[[964500, 1760000], [965000, 1760000], [965000, 1760500], [964500, 1760500], [964500, 1760000]]]}}, {"type": "Feature", "properties": {"우선순위": 2, "grid_id": "cell_964000_1756500", "sgis500_code": "다마64a56b", "행정동": "효자4동", "선정_이유": "탄소 상위 100 (86위) / 건축HUB+K-apt 함께 관측(검증용)"}, "geometry": {"type": "Polygon", "coordinates": [[[964000, 1756500], [964500, 1756500], [964500, 1757000], [964000, 1757000], [964000, 1756500]]]}}, {"type": "Feature", "properties": {"우선순위": 2, "grid_id": "cell_967000_1755000", "sgis500_code": "다마67a55a", "행정동": "평화1동·평화2동", "선정_이유": "탄소 상위 100 (87위) / 건축HUB+K-apt 함께 관측(검증용)"}, "geometry": {"type": "Polygon", "coordinates": [[[967000, 1755000], [967500, 1755000], [967500, 1755500], [967000, 1755500], [967000, 1755000]]]}}, {"type": "Feature", "properties": {"우선순위": 2, "grid_id": "cell_960000_1760500", "sgis500_code": "다마60a60b", "행정동": "혁신동", "선정_이유": "탄소 상위 100 (88위) / 건축HUB+K-apt 함께 관측(검증용)"}, "geometry": {"type": "Polygon", "coordinates": [[[960000, 1760500], [960500, 1760500], [960500, 1761000], [960000, 1761000], [960000, 1760500]]]}}, {"type": "Feature", "properties": {"우선순위": 2, "grid_id": "cell_965500_1761500", "sgis500_code": "다마65b61b", "행정동": "덕진동·송천1동", "선정_이유": "탄소 상위 100 (89위) / 건축HUB+K-apt 함께 관측(검증용)"}, "geometry": {"type": "Polygon", "coordinates": [[[965500, 1761500], [966000, 1761500], [966000, 1762000], [965500, 1762000], [965500, 1761500]]]}}, {"type": "Feature", "properties": {"우선순위": 2, "grid_id": "cell_966500_1754000", "sgis500_code": "다마66b54a", "행정동": "평화2동", "선정_이유": "탄소 상위 100 (90위) / 건축HUB+K-apt 함께 관측(검증용)"}, "geometry": {"type": "Polygon", "coordinates": [[[966500, 1754000], [967000, 1754000], [967000, 1754500], [966500, 1754500], [966500, 1754000]]]}}, {"type": "Feature", "properties": {"우선순위": 2, "grid_id": "cell_966500_1755500", "sgis500_code": "다마66b55b", "행정동": "평화2동·삼천1동·삼천2동", "선정_이유": "탄소 상위 100 (91위) / 건축HUB+K-apt 함께 관측(검증용)"}, "geometry": {"type": "Polygon", "coordinates": [[[966500, 1755500], [967000, 1755500], [967000, 1756000], [966500, 1756000], [966500, 1755500]]]}}, {"type": "Feature", "properties": {"우선순위": 2, "grid_id": "cell_964500_1759000", "sgis500_code": "다마64b59a", "행정동": "효자5동·서신동", "선정_이유": "탄소 상위 100 (92위) / 건축HUB+K-apt 함께 관측(검증용)"}, "geometry": {"type": "Polygon", "coordinates": [[[964500, 1759000], [965000, 1759000], [965000, 1759500], [964500, 1759500], [964500, 1759000]]]}}, {"type": "Feature", "properties": {"우선순위": 2, "grid_id": "cell_968000_1763000", "sgis500_code": "다마68a63a", "행정동": "호성동", "선정_이유": "탄소 상위 100 (93위) / 건축HUB+K-apt 함께 관측(검증용)"}, "geometry": {"type": "Polygon", "coordinates": [[[968000, 1763000], [968500, 1763000], [968500, 1763500], [968000, 1763500], [968000, 1763000]]]}}, {"type": "Feature", "properties": {"우선순위": 2, "grid_id": "cell_968000_1755500", "sgis500_code": "다마68a55b", "행정동": "서서학동", "선정_이유": "탄소 상위 100 (94위) / 건축HUB+K-apt 함께 관측(검증용)"}, "geometry": {"type": "Polygon", "coordinates": [[[968000, 1755500], [968500, 1755500], [968500, 1756000], [968000, 1756000], [968000, 1755500]]]}}, {"type": "Feature", "properties": {"우선순위": 2, "grid_id": "cell_969000_1760000", "sgis500_code": "다마69a60a", "행정동": "인후1동·인후3동", "선정_이유": "탄소 상위 100 (96위) / 건축HUB+K-apt 함께 관측(검증용)"}, "geometry": {"type": "Polygon", "coordinates": [[[969000, 1760000], [969500, 1760000], [969500, 1760500], [969000, 1760500], [969000, 1760000]]]}}, {"type": "Feature", "properties": {"우선순위": 2, "grid_id": "cell_965500_1762500", "sgis500_code": "다마65b62b", "행정동": "송천2동·송천1동", "선정_이유": "탄소 상위 100 (97위) / 건축HUB+K-apt 함께 관측(검증용)"}, "geometry": {"type": "Polygon", "coordinates": [[[965500, 1762500], [966000, 1762500], [966000, 1763000], [965500, 1763000], [965500, 1762500]]]}}, {"type": "Feature", "properties": {"우선순위": 2, "grid_id": "cell_969500_1758500", "sgis500_code": "다마69b58b", "행정동": "인후3동", "선정_이유": "탄소 상위 100 (98위) / 건축HUB+K-apt 함께 관측(검증용)"}, "geometry": {"type": "Polygon", "coordinates": [[[969500, 1758500], [970000, 1758500], [970000, 1759000], [969500, 1759000], [969500, 1758500]]]}}, {"type": "Feature", "properties": {"우선순위": 2, "grid_id": "cell_965500_1757000", "sgis500_code": "다마65b57a", "행정동": "효자2동·중화산2동", "선정_이유": "탄소 상위 100 (99위) / 건축HUB+K-apt 함께 관측(검증용)"}, "geometry": {"type": "Polygon", "coordinates": [[[965500, 1757000], [966000, 1757000], [966000, 1757500], [965500, 1757500], [965500, 1757000]]]}}, {"type": "Feature", "properties": {"우선순위": 2, "grid_id": "cell_964500_1756500", "sgis500_code": "다마64b56b", "행정동": "효자3동·효자4동", "선정_이유": "탄소 상위 100 (100위) / 건축HUB+K-apt 함께 관측(검증용)"}, "geometry": {"type": "Polygon", "coordinates": [[[964500, 1756500], [965000, 1756500], [965000, 1757000], [964500, 1757000], [964500, 1756500]]]}}, {"type": "Feature", "properties": {"우선순위": 3, "grid_id": "cell_964500_1758500", "sgis500_code": "다마64b58b", "행정동": "효자5동", "선정_이유": "탄소 상위 200 (101위) / 건축HUB+K-apt 함께 관측(검증용)"}, "geometry": {"type": "Polygon", "coordinates": [[[964500, 1758500], [965000, 1758500], [965000, 1759000], [964500, 1759000], [964500, 1758500]]]}}, {"type": "Feature", "properties": {"우선순위": 3, "grid_id": "cell_961000_1756500", "sgis500_code": "다마61a56b", "행정동": "효자4동·삼천3동", "선정_이유": "탄소 상위 200 (102위)"}, "geometry": {"type": "Polygon", "coordinates": [[[961000, 1756500], [961500, 1756500], [961500, 1757000], [961000, 1757000], [961000, 1756500]]]}}, {"type": "Feature", "properties": {"우선순위": 3, "grid_id": "cell_964000_1758500", "sgis500_code": "다마64a58b", "행정동": "효자5동", "선정_이유": "탄소 상위 200 (103위)"}, "geometry": {"type": "Polygon", "coordinates": [[[964000, 1758500], [964500, 1758500], [964500, 1759000], [964000, 1759000], [964000, 1758500]]]}}, {"type": "Feature", "properties": {"우선순위": 3, "grid_id": "cell_965500_1760500", "sgis500_code": "다마65b60b", "행정동": "덕진동", "선정_이유": "탄소 상위 200 (104위)"}, "geometry": {"type": "Polygon", "coordinates": [[[965500, 1760500], [966000, 1760500], [966000, 1761000], [965500, 1761000], [965500, 1760500]]]}}, {"type": "Feature", "properties": {"우선순위": 3, "grid_id": "cell_965500_1756500", "sgis500_code": "다마65b56b", "행정동": "효자2동", "선정_이유": "탄소 상위 200 (105위) / 건축HUB+K-apt 함께 관측(검증용)"}, "geometry": {"type": "Polygon", "coordinates": [[[965500, 1756500], [966000, 1756500], [966000, 1757000], [965500, 1757000], [965500, 1756500]]]}}, {"type": "Feature", "properties": {"우선순위": 3, "grid_id": "cell_965500_1761000", "sgis500_code": "다마65b61a", "행정동": "덕진동", "선정_이유": "탄소 상위 200 (107위)"}, "geometry": {"type": "Polygon", "coordinates": [[[965500, 1761000], [966000, 1761000], [966000, 1761500], [965500, 1761500], [965500, 1761000]]]}}, {"type": "Feature", "properties": {"우선순위": 3, "grid_id": "cell_961000_1759000", "sgis500_code": "다마61a59a", "행정동": "혁신동", "선정_이유": "탄소 상위 200 (108위)"}, "geometry": {"type": "Polygon", "coordinates": [[[961000, 1759000], [961500, 1759000], [961500, 1759500], [961000, 1759500], [961000, 1759000]]]}}, {"type": "Feature", "properties": {"우선순위": 3, "grid_id": "cell_962000_1764000", "sgis500_code": "다마62a64a", "행정동": "여의동", "선정_이유": "탄소 상위 200 (109위) / 건축HUB+K-apt 함께 관측(검증용)"}, "geometry": {"type": "Polygon", "coordinates": [[[962000, 1764000], [962500, 1764000], [962500, 1764500], [962000, 1764500], [962000, 1764000]]]}}, {"type": "Feature", "properties": {"우선순위": 3, "grid_id": "cell_968500_1759500", "sgis500_code": "다마68b59b", "행정동": "인후1동·인후3동", "선정_이유": "탄소 상위 200 (110위) / 건축HUB+K-apt 함께 관측(검증용)"}, "geometry": {"type": "Polygon", "coordinates": [[[968500, 1759500], [969000, 1759500], [969000, 1760000], [968500, 1760000], [968500, 1759500]]]}}, {"type": "Feature", "properties": {"우선순위": 3, "grid_id": "cell_968500_1757500", "sgis500_code": "다마68b57b", "행정동": "풍남동", "선정_이유": "탄소 상위 200 (111위)"}, "geometry": {"type": "Polygon", "coordinates": [[[968500, 1757500], [969000, 1757500], [969000, 1758000], [968500, 1758000], [968500, 1757500]]]}}, {"type": "Feature", "properties": {"우선순위": 3, "grid_id": "cell_967000_1755500", "sgis500_code": "다마67a55b", "행정동": "평화1동·평화2동", "선정_이유": "탄소 상위 200 (112위)"}, "geometry": {"type": "Polygon", "coordinates": [[[967000, 1755500], [967500, 1755500], [967500, 1756000], [967000, 1756000], [967000, 1755500]]]}}, {"type": "Feature", "properties": {"우선순위": 3, "grid_id": "cell_960500_1760000", "sgis500_code": "다마60b60a", "행정동": "혁신동", "선정_이유": "탄소 상위 200 (113위) / 건축HUB+K-apt 함께 관측(검증용)"}, "geometry": {"type": "Polygon", "coordinates": [[[960500, 1760000], [961000, 1760000], [961000, 1760500], [960500, 1760500], [960500, 1760000]]]}}, {"type": "Feature", "properties": {"우선순위": 3, "grid_id": "cell_969000_1759500", "sgis500_code": "다마69a59b", "행정동": "인후3동", "선정_이유": "탄소 상위 200 (114위) / 건축HUB+K-apt 함께 관측(검증용)"}, "geometry": {"type": "Polygon", "coordinates": [[[969000, 1759500], [969500, 1759500], [969500, 1760000], [969000, 1760000], [969000, 1759500]]]}}, {"type": "Feature", "properties": {"우선순위": 3, "grid_id": "cell_967500_1760500", "sgis500_code": "다마67b60b", "행정동": "금암2동·인후2동", "선정_이유": "탄소 상위 200 (116위) / 건축HUB+K-apt 함께 관측(검증용)"}, "geometry": {"type": "Polygon", "coordinates": [[[967500, 1760500], [968000, 1760500], [968000, 1761000], [967500, 1761000], [967500, 1760500]]]}}, {"type": "Feature", "properties": {"우선순위": 3, "grid_id": "cell_960500_1760500", "sgis500_code": "다마60b60b", "행정동": "혁신동·여의동", "선정_이유": "탄소 상위 200 (117위) / 건축HUB+K-apt 함께 관측(검증용)"}, "geometry": {"type": "Polygon", "coordinates": [[[960500, 1760500], [961000, 1760500], [961000, 1761000], [960500, 1761000], [960500, 1760500]]]}}, {"type": "Feature", "properties": {"우선순위": 3, "grid_id": "cell_965000_1759000", "sgis500_code": "다마65a59a", "행정동": "서신동", "선정_이유": "탄소 상위 200 (119위) / 건축HUB+K-apt 함께 관측(검증용)"}, "geometry": {"type": "Polygon", "coordinates": [[[965000, 1759000], [965500, 1759000], [965500, 1759500], [965000, 1759500], [965000, 1759000]]]}}, {"type": "Feature", "properties": {"우선순위": 3, "grid_id": "cell_963500_1757000", "sgis500_code": "다마63b57a", "행정동": "효자4동", "선정_이유": "탄소 상위 200 (120위) / 건축HUB+K-apt 함께 관측(검증용)"}, "geometry": {"type": "Polygon", "coordinates": [[[963500, 1757000], [964000, 1757000], [964000, 1757500], [963500, 1757500], [963500, 1757000]]]}}, {"type": "Feature", "properties": {"우선순위": 3, "grid_id": "cell_965500_1758000", "sgis500_code": "다마65b58a", "행정동": "중화산2동", "선정_이유": "탄소 상위 200 (121위)"}, "geometry": {"type": "Polygon", "coordinates": [[[965500, 1758000], [966000, 1758000], [966000, 1758500], [965500, 1758500], [965500, 1758000]]]}}, {"type": "Feature", "properties": {"우선순위": 3, "grid_id": "cell_965500_1758500", "sgis500_code": "다마65b58b", "행정동": "중화산2동·서신동", "선정_이유": "탄소 상위 200 (123위) / 건축HUB+K-apt 함께 관측(검증용)"}, "geometry": {"type": "Polygon", "coordinates": [[[965500, 1758500], [966000, 1758500], [966000, 1759000], [965500, 1759000], [965500, 1758500]]]}}, {"type": "Feature", "properties": {"우선순위": 3, "grid_id": "cell_965000_1762000", "sgis500_code": "다마65a62a", "행정동": "팔복동·송천2동", "선정_이유": "탄소 상위 200 (124위) / 건축HUB+K-apt 함께 관측(검증용)"}, "geometry": {"type": "Polygon", "coordinates": [[[965000, 1762000], [965500, 1762000], [965500, 1762500], [965000, 1762500], [965000, 1762000]]]}}, {"type": "Feature", "properties": {"우선순위": 3, "grid_id": "cell_970000_1760000", "sgis500_code": "다마70a60a", "행정동": "우아2동", "선정_이유": "탄소 상위 200 (125위)"}, "geometry": {"type": "Polygon", "coordinates": [[[970000, 1760000], [970500, 1760000], [970500, 1760500], [970000, 1760500], [970000, 1760000]]]}}, {"type": "Feature", "properties": {"우선순위": 3, "grid_id": "cell_965000_1757000", "sgis500_code": "다마65a57a", "행정동": "효자2동·효자3동", "선정_이유": "탄소 상위 200 (126위) / 건축HUB+K-apt 함께 관측(검증용)"}, "geometry": {"type": "Polygon", "coordinates": [[[965000, 1757000], [965500, 1757000], [965500, 1757500], [965000, 1757500], [965000, 1757000]]]}}, {"type": "Feature", "properties": {"우선순위": 3, "grid_id": "cell_967500_1763000", "sgis500_code": "다마67b63a", "행정동": "호성동·송천1동", "선정_이유": "탄소 상위 200 (127위) / 건축HUB+K-apt 함께 관측(검증용)"}, "geometry": {"type": "Polygon", "coordinates": [[[967500, 1763000], [968000, 1763000], [968000, 1763500], [967500, 1763500], [967500, 1763000]]]}}, {"type": "Feature", "properties": {"우선순위": 3, "grid_id": "cell_967500_1759000", "sgis500_code": "다마67b59a", "행정동": "진북동·노송동", "선정_이유": "탄소 상위 200 (128위)"}, "geometry": {"type": "Polygon", "coordinates": [[[967500, 1759000], [968000, 1759000], [968000, 1759500], [967500, 1759500], [967500, 1759000]]]}}, {"type": "Feature", "properties": {"우선순위": 3, "grid_id": "cell_959000_1759500", "sgis500_code": "다마59a59b", "행정동": "이서면", "선정_이유": "탄소 상위 200 (129위)"}, "geometry": {"type": "Polygon", "coordinates": [[[959000, 1759500], [959500, 1759500], [959500, 1760000], [959000, 1760000], [959000, 1759500]]]}}, {"type": "Feature", "properties": {"우선순위": 3, "grid_id": "cell_966000_1754500", "sgis500_code": "다마66a54b", "행정동": "평화2동", "선정_이유": "탄소 상위 200 (130위) / 건축HUB+K-apt 함께 관측(검증용)"}, "geometry": {"type": "Polygon", "coordinates": [[[966000, 1754500], [966500, 1754500], [966500, 1755000], [966000, 1755000], [966000, 1754500]]]}}, {"type": "Feature", "properties": {"우선순위": 3, "grid_id": "cell_965000_1763500", "sgis500_code": "다마65a63b", "행정동": "송천2동", "선정_이유": "탄소 상위 200 (131위)"}, "geometry": {"type": "Polygon", "coordinates": [[[965000, 1763500], [965500, 1763500], [965500, 1764000], [965000, 1764000], [965000, 1763500]]]}}, {"type": "Feature", "properties": {"우선순위": 3, "grid_id": "cell_967000_1760000", "sgis500_code": "다마67a60a", "행정동": "금암1동·금암2동", "선정_이유": "탄소 상위 200 (132위) / 건축HUB+K-apt 함께 관측(검증용)"}, "geometry": {"type": "Polygon", "coordinates": [[[967000, 1760000], [967500, 1760000], [967500, 1760500], [967000, 1760500], [967000, 1760000]]]}}, {"type": "Feature", "properties": {"우선순위": 3, "grid_id": "cell_968000_1761000", "sgis500_code": "다마68a61a", "행정동": "인후2동", "선정_이유": "탄소 상위 200 (133위) / 건축HUB+K-apt 함께 관측(검증용)"}, "geometry": {"type": "Polygon", "coordinates": [[[968000, 1761000], [968500, 1761000], [968500, 1761500], [968000, 1761500], [968000, 1761000]]]}}, {"type": "Feature", "properties": {"우선순위": 3, "grid_id": "cell_970000_1759500", "sgis500_code": "다마70a59b", "행정동": "우아2동", "선정_이유": "탄소 상위 200 (134위) / 건축HUB+K-apt 함께 관측(검증용)"}, "geometry": {"type": "Polygon", "coordinates": [[[970000, 1759500], [970500, 1759500], [970500, 1760000], [970000, 1760000], [970000, 1759500]]]}}, {"type": "Feature", "properties": {"우선순위": 3, "grid_id": "cell_967000_1760500", "sgis500_code": "다마67a60b", "행정동": "금암1동·금암2동", "선정_이유": "탄소 상위 200 (137위)"}, "geometry": {"type": "Polygon", "coordinates": [[[967000, 1760500], [967500, 1760500], [967500, 1761000], [967000, 1761000], [967000, 1760500]]]}}, {"type": "Feature", "properties": {"우선순위": 3, "grid_id": "cell_959500_1759500", "sgis500_code": "다마59b59b", "행정동": "이서면·혁신동", "선정_이유": "탄소 상위 200 (138위)"}, "geometry": {"type": "Polygon", "coordinates": [[[959500, 1759500], [960000, 1759500], [960000, 1760000], [959500, 1760000], [959500, 1759500]]]}}, {"type": "Feature", "properties": {"우선순위": 3, "grid_id": "cell_965500_1763500", "sgis500_code": "다마65b63b", "행정동": "송천2동·송천1동", "선정_이유": "탄소 상위 200 (139위)"}, "geometry": {"type": "Polygon", "coordinates": [[[965500, 1763500], [966000, 1763500], [966000, 1764000], [965500, 1764000], [965500, 1763500]]]}}, {"type": "Feature", "properties": {"우선순위": 3, "grid_id": "cell_959500_1759000", "sgis500_code": "다마59b59a", "행정동": "혁신동", "선정_이유": "탄소 상위 200 (140위)"}, "geometry": {"type": "Polygon", "coordinates": [[[959500, 1759000], [960000, 1759000], [960000, 1759500], [959500, 1759500], [959500, 1759000]]]}}, {"type": "Feature", "properties": {"우선순위": 3, "grid_id": "cell_966500_1758500", "sgis500_code": "다마66b58b", "행정동": "진북동·중앙동", "선정_이유": "탄소 상위 200 (141위) / 건축HUB+K-apt 함께 관측(검증용)"}, "geometry": {"type": "Polygon", "coordinates": [[[966500, 1758500], [967000, 1758500], [967000, 1759000], [966500, 1759000], [966500, 1758500]]]}}, {"type": "Feature", "properties": {"우선순위": 3, "grid_id": "cell_961500_1761500", "sgis500_code": "다마61b61b", "행정동": "여의동·혁신동", "선정_이유": "탄소 상위 200 (142위)"}, "geometry": {"type": "Polygon", "coordinates": [[[961500, 1761500], [962000, 1761500], [962000, 1762000], [961500, 1762000], [961500, 1761500]]]}}, {"type": "Feature", "properties": {"우선순위": 3, "grid_id": "cell_965500_1755000", "sgis500_code": "다마65b55a", "행정동": "삼천2동·평화2동", "선정_이유": "탄소 상위 200 (143위) / 건축HUB+K-apt 함께 관측(검증용)"}, "geometry": {"type": "Polygon", "coordinates": [[[965500, 1755000], [966000, 1755000], [966000, 1755500], [965500, 1755500], [965500, 1755000]]]}}, {"type": "Feature", "properties": {"우선순위": 3, "grid_id": "cell_970500_1759000", "sgis500_code": "다마70b59a", "행정동": "우아2동", "선정_이유": "탄소 상위 200 (146위)"}, "geometry": {"type": "Polygon", "coordinates": [[[970500, 1759000], [971000, 1759000], [971000, 1759500], [970500, 1759500], [970500, 1759000]]]}}, {"type": "Feature", "properties": {"우선순위": 3, "grid_id": "cell_968500_1757000", "sgis500_code": "다마68b57a", "행정동": "풍남동·동서학동", "선정_이유": "탄소 상위 200 (148위)"}, "geometry": {"type": "Polygon", "coordinates": [[[968500, 1757000], [969000, 1757000], [969000, 1757500], [968500, 1757500], [968500, 1757000]]]}}, {"type": "Feature", "properties": {"우선순위": 3, "grid_id": "cell_969500_1760500", "sgis500_code": "다마69b60b", "행정동": "우아2동·우아1동", "선정_이유": "탄소 상위 200 (150위) / 건축HUB+K-apt 함께 관측(검증용)"}, "geometry": {"type": "Polygon", "coordinates": [[[969500, 1760500], [970000, 1760500], [970000, 1761000], [969500, 1761000], [969500, 1760500]]]}}, {"type": "Feature", "properties": {"우선순위": 3, "grid_id": "cell_968000_1757000", "sgis500_code": "다마68a57a", "행정동": "풍남동·완산동·서서학동", "선정_이유": "탄소 상위 200 (151위)"}, "geometry": {"type": "Polygon", "coordinates": [[[968000, 1757000], [968500, 1757000], [968500, 1757500], [968000, 1757500], [968000, 1757000]]]}}, {"type": "Feature", "properties": {"우선순위": 3, "grid_id": "cell_963500_1756000", "sgis500_code": "다마63b56a", "행정동": "효자4동", "선정_이유": "탄소 상위 200 (152위)"}, "geometry": {"type": "Polygon", "coordinates": [[[963500, 1756000], [964000, 1756000], [964000, 1756500], [963500, 1756500], [963500, 1756000]]]}}, {"type": "Feature", "properties": {"우선순위": 3, "grid_id": "cell_966000_1758000", "sgis500_code": "다마66a58a", "행정동": "중화산2동·진북동", "선정_이유": "탄소 상위 200 (153위) / 건축HUB+K-apt 함께 관측(검증용)"}, "geometry": {"type": "Polygon", "coordinates": [[[966000, 1758000], [966500, 1758000], [966500, 1758500], [966000, 1758500], [966000, 1758000]]]}}, {"type": "Feature", "properties": {"우선순위": 3, "grid_id": "cell_960500_1761000", "sgis500_code": "다마60b61a", "행정동": "여의동·혁신동", "선정_이유": "탄소 상위 200 (154위)"}, "geometry": {"type": "Polygon", "coordinates": [[[960500, 1761000], [961000, 1761000], [961000, 1761500], [960500, 1761500], [960500, 1761000]]]}}, {"type": "Feature", "properties": {"우선순위": 3, "grid_id": "cell_960000_1762500", "sgis500_code": "다마60a62b", "행정동": "여의동", "선정_이유": "탄소 상위 200 (155위) / 건축HUB+K-apt 함께 관측(검증용)"}, "geometry": {"type": "Polygon", "coordinates": [[[960000, 1762500], [960500, 1762500], [960500, 1763000], [960000, 1763000], [960000, 1762500]]]}}, {"type": "Feature", "properties": {"우선순위": 3, "grid_id": "cell_964000_1761000", "sgis500_code": "다마64a61a", "행정동": "팔복동", "선정_이유": "탄소 상위 200 (156위) / 건축HUB+K-apt 함께 관측(검증용)"}, "geometry": {"type": "Polygon", "coordinates": [[[964000, 1761000], [964500, 1761000], [964500, 1761500], [964000, 1761500], [964000, 1761000]]]}}, {"type": "Feature", "properties": {"우선순위": 3, "grid_id": "cell_961500_1762000", "sgis500_code": "다마61b62a", "행정동": "여의동", "선정_이유": "탄소 상위 200 (157위)"}, "geometry": {"type": "Polygon", "coordinates": [[[961500, 1762000], [962000, 1762000], [962000, 1762500], [961500, 1762500], [961500, 1762000]]]}}, {"type": "Feature", "properties": {"우선순위": 3, "grid_id": "cell_966500_1753500", "sgis500_code": "다마66b53b", "행정동": "평화2동", "선정_이유": "탄소 상위 200 (159위) / 건축HUB+K-apt 함께 관측(검증용)"}, "geometry": {"type": "Polygon", "coordinates": [[[966500, 1753500], [967000, 1753500], [967000, 1754000], [966500, 1754000], [966500, 1753500]]]}}, {"type": "Feature", "properties": {"우선순위": 3, "grid_id": "cell_969000_1758500", "sgis500_code": "다마69a58b", "행정동": "노송동·인후3동", "선정_이유": "탄소 상위 200 (160위) / 건축HUB+K-apt 함께 관측(검증용)"}, "geometry": {"type": "Polygon", "coordinates": [[[969000, 1758500], [969500, 1758500], [969500, 1759000], [969000, 1759000], [969000, 1758500]]]}}, {"type": "Feature", "properties": {"우선순위": 3, "grid_id": "cell_966500_1762500", "sgis500_code": "다마66b62b", "행정동": "송천1동", "선정_이유": "탄소 상위 200 (161위) / 건축HUB+K-apt 함께 관측(검증용)"}, "geometry": {"type": "Polygon", "coordinates": [[[966500, 1762500], [967000, 1762500], [967000, 1763000], [966500, 1763000], [966500, 1762500]]]}}, {"type": "Feature", "properties": {"우선순위": 3, "grid_id": "cell_967500_1759500", "sgis500_code": "다마67b59b", "행정동": "인후2동·진북동·금암2동", "선정_이유": "탄소 상위 200 (162위)"}, "geometry": {"type": "Polygon", "coordinates": [[[967500, 1759500], [968000, 1759500], [968000, 1760000], [967500, 1760000], [967500, 1759500]]]}}, {"type": "Feature", "properties": {"우선순위": 3, "grid_id": "cell_969000_1759000", "sgis500_code": "다마69a59a", "행정동": "인후3동", "선정_이유": "탄소 상위 200 (163위)"}, "geometry": {"type": "Polygon", "coordinates": [[[969000, 1759000], [969500, 1759000], [969500, 1759500], [969000, 1759500], [969000, 1759000]]]}}, {"type": "Feature", "properties": {"우선순위": 3, "grid_id": "cell_962500_1758500", "sgis500_code": "다마62b58b", "행정동": "효자5동", "선정_이유": "탄소 상위 200 (164위)"}, "geometry": {"type": "Polygon", "coordinates": [[[962500, 1758500], [963000, 1758500], [963000, 1759000], [962500, 1759000], [962500, 1758500]]]}}, {"type": "Feature", "properties": {"우선순위": 3, "grid_id": "cell_966000_1760000", "sgis500_code": "다마66a60a", "행정동": "덕진동·금암1동", "선정_이유": "탄소 상위 200 (165위)"}, "geometry": {"type": "Polygon", "coordinates": [[[966000, 1760000], [966500, 1760000], [966500, 1760500], [966000, 1760500], [966000, 1760000]]]}}, {"type": "Feature", "properties": {"우선순위": 3, "grid_id": "cell_964000_1763500", "sgis500_code": "다마64a63b", "행정동": "팔복동·송천2동", "선정_이유": "탄소 상위 200 (166위)"}, "geometry": {"type": "Polygon", "coordinates": [[[964000, 1763500], [964500, 1763500], [964500, 1764000], [964000, 1764000], [964000, 1763500]]]}}, {"type": "Feature", "properties": {"우선순위": 3, "grid_id": "cell_965500_1754500", "sgis500_code": "다마65b54b", "행정동": "평화2동", "선정_이유": "탄소 상위 200 (167위) / 건축HUB+K-apt 함께 관측(검증용)"}, "geometry": {"type": "Polygon", "coordinates": [[[965500, 1754500], [966000, 1754500], [966000, 1755000], [965500, 1755000], [965500, 1754500]]]}}, {"type": "Feature", "properties": {"우선순위": 3, "grid_id": "cell_968500_1756500", "sgis500_code": "다마68b56b", "행정동": "동서학동", "선정_이유": "탄소 상위 200 (169위) / 건축HUB+K-apt 함께 관측(검증용)"}, "geometry": {"type": "Polygon", "coordinates": [[[968500, 1756500], [969000, 1756500], [969000, 1757000], [968500, 1757000], [968500, 1756500]]]}}, {"type": "Feature", "properties": {"우선순위": 3, "grid_id": "cell_967000_1758000", "sgis500_code": "다마67a58a", "행정동": "중앙동·중화산1동", "선정_이유": "탄소 상위 200 (170위)"}, "geometry": {"type": "Polygon", "coordinates": [[[967000, 1758000], [967500, 1758000], [967500, 1758500], [967000, 1758500], [967000, 1758000]]]}}, {"type": "Feature", "properties": {"우선순위": 3, "grid_id": "cell_966000_1755000", "sgis500_code": "다마66a55a", "행정동": "평화2동·삼천2동", "선정_이유": "탄소 상위 200 (171위) / 건축HUB+K-apt 함께 관측(검증용)"}, "geometry": {"type": "Polygon", "coordinates": [[[966000, 1755000], [966500, 1755000], [966500, 1755500], [966000, 1755500], [966000, 1755000]]]}}, {"type": "Feature", "properties": {"우선순위": 3, "grid_id": "cell_966500_1759000", "sgis500_code": "다마66b59a", "행정동": "진북동", "선정_이유": "탄소 상위 200 (172위)"}, "geometry": {"type": "Polygon", "coordinates": [[[966500, 1759000], [967000, 1759000], [967000, 1759500], [966500, 1759500], [966500, 1759000]]]}}, {"type": "Feature", "properties": {"우선순위": 3, "grid_id": "cell_964500_1761000", "sgis500_code": "다마64b61a", "행정동": "덕진동", "선정_이유": "탄소 상위 200 (174위) / 건축HUB+K-apt 함께 관측(검증용)"}, "geometry": {"type": "Polygon", "coordinates": [[[964500, 1761000], [965000, 1761000], [965000, 1761500], [964500, 1761500], [964500, 1761000]]]}}, {"type": "Feature", "properties": {"우선순위": 3, "grid_id": "cell_968000_1759500", "sgis500_code": "다마68a59b", "행정동": "인후2동", "선정_이유": "탄소 상위 200 (175위)"}, "geometry": {"type": "Polygon", "coordinates": [[[968000, 1759500], [968500, 1759500], [968500, 1760000], [968000, 1760000], [968000, 1759500]]]}}, {"type": "Feature", "properties": {"우선순위": 3, "grid_id": "cell_962000_1763500", "sgis500_code": "다마62a63b", "행정동": "여의동", "선정_이유": "탄소 상위 200 (176위) / 건축HUB+K-apt 함께 관측(검증용)"}, "geometry": {"type": "Polygon", "coordinates": [[[962000, 1763500], [962500, 1763500], [962500, 1764000], [962000, 1764000], [962000, 1763500]]]}}, {"type": "Feature", "properties": {"우선순위": 3, "grid_id": "cell_969000_1757000", "sgis500_code": "다마69a57a", "행정동": "동서학동·풍남동", "선정_이유": "탄소 상위 200 (177위)"}, "geometry": {"type": "Polygon", "coordinates": [[[969000, 1757000], [969500, 1757000], [969500, 1757500], [969000, 1757500], [969000, 1757000]]]}}, {"type": "Feature", "properties": {"우선순위": 3, "grid_id": "cell_968000_1760000", "sgis500_code": "다마68a60a", "행정동": "인후2동", "선정_이유": "탄소 상위 200 (178위)"}, "geometry": {"type": "Polygon", "coordinates": [[[968000, 1760000], [968500, 1760000], [968500, 1760500], [968000, 1760500], [968000, 1760000]]]}}, {"type": "Feature", "properties": {"우선순위": 3, "grid_id": "cell_968000_1760500", "sgis500_code": "다마68a60b", "행정동": "인후2동", "선정_이유": "탄소 상위 200 (179위) / 건축HUB+K-apt 함께 관측(검증용)"}, "geometry": {"type": "Polygon", "coordinates": [[[968000, 1760500], [968500, 1760500], [968500, 1761000], [968000, 1761000], [968000, 1760500]]]}}, {"type": "Feature", "properties": {"우선순위": 3, "grid_id": "cell_964500_1755000", "sgis500_code": "다마64b55a", "행정동": "삼천3동", "선정_이유": "탄소 상위 200 (180위)"}, "geometry": {"type": "Polygon", "coordinates": [[[964500, 1755000], [965000, 1755000], [965000, 1755500], [964500, 1755500], [964500, 1755000]]]}}, {"type": "Feature", "properties": {"우선순위": 3, "grid_id": "cell_963500_1757500", "sgis500_code": "다마63b57b", "행정동": "효자5동", "선정_이유": "탄소 상위 200 (181위)"}, "geometry": {"type": "Polygon", "coordinates": [[[963500, 1757500], [964000, 1757500], [964000, 1758000], [963500, 1758000], [963500, 1757500]]]}}, {"type": "Feature", "properties": {"우선순위": 3, "grid_id": "cell_966500_1760500", "sgis500_code": "다마66b60b", "행정동": "덕진동·금암1동", "선정_이유": "탄소 상위 200 (182위)"}, "geometry": {"type": "Polygon", "coordinates": [[[966500, 1760500], [967000, 1760500], [967000, 1761000], [966500, 1761000], [966500, 1760500]]]}}, {"type": "Feature", "properties": {"우선순위": 3, "grid_id": "cell_961000_1763000", "sgis500_code": "다마61a63a", "행정동": "여의동", "선정_이유": "탄소 상위 200 (183위)"}, "geometry": {"type": "Polygon", "coordinates": [[[961000, 1763000], [961500, 1763000], [961500, 1763500], [961000, 1763500], [961000, 1763000]]]}}, {"type": "Feature", "properties": {"우선순위": 3, "grid_id": "cell_960000_1759000", "sgis500_code": "다마60a59a", "행정동": "혁신동", "선정_이유": "탄소 상위 200 (184위)"}, "geometry": {"type": "Polygon", "coordinates": [[[960000, 1759000], [960500, 1759000], [960500, 1759500], [960000, 1759500], [960000, 1759000]]]}}, {"type": "Feature", "properties": {"우선순위": 3, "grid_id": "cell_968000_1763500", "sgis500_code": "다마68a63b", "행정동": "호성동", "선정_이유": "탄소 상위 200 (185위)"}, "geometry": {"type": "Polygon", "coordinates": [[[968000, 1763500], [968500, 1763500], [968500, 1764000], [968000, 1764000], [968000, 1763500]]]}}, {"type": "Feature", "properties": {"우선순위": 3, "grid_id": "cell_965000_1761500", "sgis500_code": "다마65a61b", "행정동": "덕진동·팔복동", "선정_이유": "탄소 상위 200 (187위)"}, "geometry": {"type": "Polygon", "coordinates": [[[965000, 1761500], [965500, 1761500], [965500, 1762000], [965000, 1762000], [965000, 1761500]]]}}, {"type": "Feature", "properties": {"우선순위": 3, "grid_id": "cell_967000_1763000", "sgis500_code": "다마67a63a", "행정동": "송천1동", "선정_이유": "탄소 상위 200 (188위) / 건축HUB+K-apt 함께 관측(검증용)"}, "geometry": {"type": "Polygon", "coordinates": [[[967000, 1763000], [967500, 1763000], [967500, 1763500], [967000, 1763500], [967000, 1763000]]]}}, {"type": "Feature", "properties": {"우선순위": 3, "grid_id": "cell_960000_1761000", "sgis500_code": "다마60a61a", "행정동": "여의동·혁신동", "선정_이유": "탄소 상위 200 (192위) / 건축HUB+K-apt 함께 관측(검증용)"}, "geometry": {"type": "Polygon", "coordinates": [[[960000, 1761000], [960500, 1761000], [960500, 1761500], [960000, 1761500], [960000, 1761000]]]}}, {"type": "Feature", "properties": {"우선순위": 3, "grid_id": "cell_968500_1758000", "sgis500_code": "다마68b58a", "행정동": "노송동", "선정_이유": "탄소 상위 200 (193위)"}, "geometry": {"type": "Polygon", "coordinates": [[[968500, 1758000], [969000, 1758000], [969000, 1758500], [968500, 1758500], [968500, 1758000]]]}}, {"type": "Feature", "properties": {"우선순위": 3, "grid_id": "cell_962500_1758000", "sgis500_code": "다마62b58a", "행정동": "효자4동·효자5동", "선정_이유": "탄소 상위 200 (194위)"}, "geometry": {"type": "Polygon", "coordinates": [[[962500, 1758000], [963000, 1758000], [963000, 1758500], [962500, 1758500], [962500, 1758000]]]}}, {"type": "Feature", "properties": {"우선순위": 3, "grid_id": "cell_964500_1763500", "sgis500_code": "다마64b63b", "행정동": "송천2동", "선정_이유": "탄소 상위 200 (196위)"}, "geometry": {"type": "Polygon", "coordinates": [[[964500, 1763500], [965000, 1763500], [965000, 1764000], [964500, 1764000], [964500, 1763500]]]}}, {"type": "Feature", "properties": {"우선순위": 3, "grid_id": "cell_968500_1758500", "sgis500_code": "다마68b58b", "행정동": "노송동", "선정_이유": "탄소 상위 200 (197위)"}, "geometry": {"type": "Polygon", "coordinates": [[[968500, 1758500], [969000, 1758500], [969000, 1759000], [968500, 1759000], [968500, 1758500]]]}}, {"type": "Feature", "properties": {"우선순위": 3, "grid_id": "cell_964000_1762000", "sgis500_code": "다마64a62a", "행정동": "팔복동", "선정_이유": "탄소 상위 200 (198위)"}, "geometry": {"type": "Polygon", "coordinates": [[[964000, 1762000], [964500, 1762000], [964500, 1762500], [964000, 1762500], [964000, 1762000]]]}}, {"type": "Feature", "properties": {"우선순위": 3, "grid_id": "cell_962500_1762000", "sgis500_code": "다마62b62a", "행정동": "팔복동", "선정_이유": "탄소 상위 200 (199위)"}, "geometry": {"type": "Polygon", "coordinates": [[[962500, 1762000], [963000, 1762000], [963000, 1762500], [962500, 1762500], [962500, 1762000]]]}}, {"type": "Feature", "properties": {"우선순위": 3, "grid_id": "cell_965500_1759000", "sgis500_code": "다마65b59a", "행정동": "서신동", "선정_이유": "탄소 상위 200 (200위)"}, "geometry": {"type": "Polygon", "coordinates": [[[965500, 1759000], [966000, 1759000], [966000, 1759500], [965500, 1759500], [965500, 1759000]]]}}, {"type": "Feature", "properties": {"우선순위": 3, "grid_id": "cell_967000_1757000", "sgis500_code": "다마67a57a", "행정동": "완산동", "선정_이유": "건축HUB+K-apt 함께 관측(검증용)"}, "geometry": {"type": "Polygon", "coordinates": [[[967000, 1757000], [967500, 1757000], [967500, 1757500], [967000, 1757500], [967000, 1757000]]]}}, {"type": "Feature", "properties": {"우선순위": 3, "grid_id": "cell_966500_1757500", "sgis500_code": "다마66b57b", "행정동": "중화산1동", "선정_이유": "건축HUB+K-apt 함께 관측(검증용)"}, "geometry": {"type": "Polygon", "coordinates": [[[966500, 1757500], [967000, 1757500], [967000, 1758000], [966500, 1758000], [966500, 1757500]]]}}, {"type": "Feature", "properties": {"우선순위": 3, "grid_id": "cell_967500_1756000", "sgis500_code": "다마67b56a", "행정동": "서서학동·평화1동", "선정_이유": "건축HUB+K-apt 함께 관측(검증용)"}, "geometry": {"type": "Polygon", "coordinates": [[[967500, 1756000], [968000, 1756000], [968000, 1756500], [967500, 1756500], [967500, 1756000]]]}}, {"type": "Feature", "properties": {"우선순위": 3, "grid_id": "cell_966000_1762000", "sgis500_code": "다마66a62a", "행정동": "송천1동", "선정_이유": "건축HUB+K-apt 함께 관측(검증용)"}, "geometry": {"type": "Polygon", "coordinates": [[[966000, 1762000], [966500, 1762000], [966500, 1762500], [966000, 1762500], [966000, 1762000]]]}}, {"type": "Feature", "properties": {"우선순위": 3, "grid_id": "cell_969500_1758000", "sgis500_code": "다마69b58a", "행정동": "노송동·인후3동", "선정_이유": "건축HUB+K-apt 함께 관측(검증용)"}, "geometry": {"type": "Polygon", "coordinates": [[[969500, 1758000], [970000, 1758000], [970000, 1758500], [969500, 1758500], [969500, 1758000]]]}}, {"type": "Feature", "properties": {"우선순위": 3, "grid_id": "cell_967000_1756500", "sgis500_code": "다마67a56b", "행정동": "효자1동·완산동", "선정_이유": "건축HUB+K-apt 함께 관측(검증용)"}, "geometry": {"type": "Polygon", "coordinates": [[[967000, 1756500], [967500, 1756500], [967500, 1757000], [967000, 1757000], [967000, 1756500]]]}}, {"type": "Feature", "properties": {"우선순위": 3, "grid_id": "cell_965000_1754500", "sgis500_code": "다마65a54b", "행정동": "평화2동·삼천3동", "선정_이유": "건축HUB+K-apt 함께 관측(검증용)"}, "geometry": {"type": "Polygon", "coordinates": [[[965000, 1754500], [965500, 1754500], [965500, 1755000], [965000, 1755000], [965000, 1754500]]]}}, {"type": "Feature", "properties": {"우선순위": 3, "grid_id": "cell_970500_1755500", "sgis500_code": "다마70b55b", "행정동": "동서학동", "선정_이유": "건축HUB+K-apt 함께 관측(검증용)"}, "geometry": {"type": "Polygon", "coordinates": [[[970500, 1755500], [971000, 1755500], [971000, 1756000], [970500, 1756000], [970500, 1755500]]]}}]}